STARLINK-4051           
1 53273U 22086AH  26068.62958638 -.00000219  00000+0  43047-5 0  9992
2 53273  53.2177 184.3919 0001515  73.7535 286.3624 15.08844762201182
KUIPER-00148            
1 65769U 25217H   26068.27522507  .00015783  00000+0  98730-3 0  9995
2 65769  51.8794  26.5769 0008108 351.8096   8.2745 15.09536529 25078
